KUIPER-00176            
1 65788U 25217AC  25316.83336806 -.00787974  00000+0 -26527-1 0  9991
2 65788  51.8741 208.9272 0000412 218.5228 196.0690 15.32660960  5876
KUIPER-00101            
1 65947U 25228A   25316.83336806 -.00310483  00000+0 -11536-1 0  9991
2 65947  51.8821 164.8594 0005649 234.8888  12.2122 15.28345865  5507
KUIPER-00113            
1 65948U 25228B   25316.57177265  .00105472  00000+0  29764-2 0  9996
2 65948  51.8752 165.8574 0005988 241.5321 118.5062 15.35525529  5781
KUIPER-00117            
1 65949U 25228C   25316.83336806 -.00807844  00000+0 -26800-1 0  9995
2 65949  51.8800 164.6241 0007383 243.8494 105.5947 15.33124195  5242
KUIPER-00121            
1 65950U 25228D   25316.84472507  .00071769  00000+0  20844-2 0  9997
2 65950  51.8828 164.6881 0005308 256.3970 103.6425 15.34820392  5824
KUIPER-00122            
1 65951U 25228E   25316.83336806 -.00515012  00000+0 -23617-1 0  9994
2 65951  51.8826 165.3271 0006338 272.5904 115.6623 15.22286477  4442
KUIPER-00123            
1 65952U 25228F   25316.83336806 -.01080175  00000+0 -50998-1 0  9995
2 65952  51.8840 165.3448 0006010 254.0402  83.2708 15.21988439  2741
KUIPER-00124            
1 65953U 25228G   25316.84814529  .00051533  00000+0  15224-2 0  9997
2 65953  51.8792 164.7057 0005217 274.1948  85.8441 15.34433073  5820
